FALCONSAT-10            
1 58291U 23174AM  26068.70247784  .00006748  00000+0  25969-3 0  9991
2 58291  97.3865 145.7938 0008932 169.5942 190.5483 15.26670596129582
STARLINK-35695          
1 66558U 25268B   26068.15483160  .00032128  00000+0  11712-2 0  9992
2 66558  43.0083 350.4619 0004164 256.8745 103.1642 15.27597305 17874
